[
    {
        "Altitude(m)": 612502.2466521699,
        "Argument of Periapsis(deg)": 0.0,
        "Eccentricity": 0.0,
        "Inclination(deg)": 60.0,
        "Latitude(deg)": -28.136141537492872,
        "Longitude(deg)": -117.85178429502857,
        "Mean Anomaly(deg)": 327.2727,
        "RAAN(deg)": 0.0,
        "Satellite Name": "Test1 20",
        "Satellite Number": 20,
        "Semi-Major Axis(m)": 6980739.136638005,
        "Time(s)": 0
    },
    {
        "Altitude(m)": 612308.6940276282,
        "Argument of Periapsis(deg)": 0.00010418945913296404,
        "Eccentricity": 0.0,
        "Inclination(deg)": 60.0,
        "Latitude(deg)": -27.623197246805255,
        "Longitude(deg)": -117.49830888503479,
        "Mean Anomaly(deg)": 327.8928061454618,
        "RAAN(deg)": -0.0004200491397426661,
        "Satellite Name": "Test1 20",
        "Satellite Number": 20,
        "Semi-Major Axis(m)": 6980739.136638005,
        "Time(s)": 10
    }
]